#dP2020 10 19  0  0  0.00000000      96 __u+U ITR00 FIT  IAC
## 2128  86400.00000000   900.00000000 59141 0.0000000000000
+  113   C01C03C04C05C06C07C08C09C10C11C12C13C14C16C19C20C21
+        C22C23C24C25C26C27C28C29C30C32C33C34C35C36C37C43C46
+        E01E02E03E04E05E07E08E09E11E12E13E14E15E18E19E21E24
+        E25E26E27E30E31E33E36G01G02G03G04G06G07G08G09G10G11
+        G12G13G16G17G18G19G20G21G22G23G24G25G26G27G28G30G31
+        G32J01J02J03J07R01R02R03R04R05R07R08R09R11R12R13R14
+        R15R16R17R18R19R20R21R22R23R24R26  0  0  0  0  0  0
++        13  0  0  0  0  9  9  8  8  8  8  8  8  0  8  8  8
++         8  8  8  8  8  8  8  8  8  8  0  9  9  8  8  0  9
++         5  6  5  5  5  5  5  5  5  5  5  5  6  5  5  5  5
++         5  5  5  5  5  5  6  4  4  4  4  4  4  4  4  4  5
++         4  4  4  4  0  4  4  4  4  4  4  4  4  4  4  4  4
++         4  9  9  9 15  7  6  6  6  6  6  6  6  6  6  7  7
++         7  7  7  6  6  6  6  7  6  7  8  0  0  0  0  0  0
%c M  cc GPS ccc cccc cccc cccc cccc ccccc ccccc ccccc ccccc
%c cc cc ccc ccc cccc cccc cccc cccc ccccc ccccc ccccc ccccc
%f  0.0000000  0.000000000  0.00000000000  0.000000000000000
%f  0.0000000  0.000000000  0.00000000000  0.000000000000000
%i    0    0    0    0      0      0      0      0         0
%i    0    0    0    0      0      0      0      0         0
/* INFORMATION & ANALYSIS CENTER (IAC)            RAPID DATA
/* S/V CLOCKS ARE ALIGNED TO GNSS TIME                      
/* G:C1WC2W R:C1PC2P E:C1XC5X C:C2IC6I J:C1CC2S             
/* PCV:IGS14_2118 OL/AL:FES2004  NONE     YN ORB:CoN CLK:CoN
*  2020 10 19 10  0  0.00000000
PC01 -34359.240638  24462.479882    201.762943   -656.048340
PC03      0.000000      0.000000      0.000000 999999.999999
PC04      0.000000      0.000000      0.000000 999999.999999
PC05      0.000000      0.000000      0.000000 999999.999999
PC06      0.000000      0.000000      0.000000 999999.999999
PC07 -20930.881544  36920.802230    884.234115   -113.011588
PC08  -5137.538706  28539.450783 -30366.508126   -619.888018
PC09  -1959.585321  24543.418171  34486.717199    882.516258
PC10  -9930.373676  39273.689356 -12248.115365   -160.754150
PC11 -25258.481451   1109.727124 -11816.918220   -694.681302
PC12 -25221.910049 -10528.322708   5769.433976    563.940227
PC13   5447.108507  36439.809343 -20140.897033    702.874253
PC14 -22518.255094  11566.442367 -11785.548953     -0.345646
PC16      0.000000      0.000000      0.000000 999999.999999
PC19  20676.934823 -18473.463138   3104.204929    587.221430
PC20  21005.586607  -3910.042846  17942.195536   -864.476240
PC21  -8809.701955 -13609.328241 -22704.720360   -700.413109
PC22   8330.633972 -22665.063498 -13971.231077   -776.093165
PC23    690.830912  26435.252494   8921.201028   -898.341505
PC24 -17289.398856  -7090.072987  20735.951083   -720.722838
PC25 -11171.650613  14589.200029  20997.130093   -796.484395
PC26 -13524.364725 -22739.117870   8929.809880    872.510958
PC27  18906.952268  15075.981793 -13953.003814    418.225109
PC28   -602.727864  16115.288883 -22769.328758   -156.434258
PC29  19345.666601  -8495.346091  18222.637050    299.426392
PC30  27433.298230   4435.890381   2631.338848    391.783316
PC32   8882.599331  13597.062477  22697.812255   -901.396804
PC33      0.000000      0.000000      0.000000 999999.999999
PC34 -27407.835584  -4105.435473  -3206.153017   -828.681128
PC35    352.167952 -16142.754785  22756.709302   -600.615357
PC36  11622.495964 -14082.953736 -21071.626537   -871.064549
PC37  12625.083213  23461.050229  -8245.274850   -894.093484
PC43      0.000000      0.000000      0.000000 999999.999999
PC46  17158.500622   6247.844501 -21076.666186    585.473438
PE01  15515.818250   6160.842196 -24432.907262   -964.557422
PE02 -15550.993789  -6054.428026  24456.581558    170.033552
PE03 -26032.990560  -1196.346074 -14058.641146   -355.418525
PE04  26605.862017 -12422.211562  -3734.779964   -630.187928
PE05 -10166.926425 -14302.359017 -23843.116086   -336.619039
PE07 -11503.671971  18946.067728  19622.730939   -450.664369
PE08 -26442.452531  12704.906486   3996.992335   6104.350847
PE09  11273.683870 -18904.359882 -19786.716106   5893.816275
PE11    417.893768 -18987.821697  22696.185872   6344.144455
PE12  18346.620326  -4269.547144  22835.457237   5549.179247
PE13   -605.351184  18782.247049 -22863.441207    404.766829
PE14  13631.685134  17486.517292 -22056.315613  -1195.522073
PE15 -18185.290737   4408.373217 -22931.592609    847.750241
PE18 -22305.544075  -7899.740829  10454.951056  -1305.915025
PE19  24868.199092   2780.416904  15809.877556    106.809905
PE21   6353.147170  24277.875984 -15688.089546   -627.420385
PE24   7209.085792 -28578.320520  -2862.868878   -537.285601
PE25  -6270.325663 -24377.055736  15592.435372   -518.544354
PE26  17559.853392  22141.261865  -8778.776916   2595.727014
PE27  -6775.627215  28709.403415   2428.473290    110.581321
PE30 -16100.570399  15584.371089  19335.899149   3493.524071
PE31  15829.475582 -16270.918144 -18981.360673   -474.983659
PE33  25061.649215  12535.813438   9533.535261   -462.853122
PE36 -17315.058498 -22112.473126   9364.826091    492.485000
PG01  19608.626351  10848.951485  14272.630868    814.612091
PG02 -14074.612176 -22083.681099   5157.940532   -531.539253
PG03  16101.257149   -594.649962  21015.518647   -330.336944
PG04  26164.794158   1157.698603   4549.463124   -146.795825
PG06  -1527.746047 -20740.610773  16553.707382   -334.103076
PG07  14419.761350  -5821.036835 -21248.883957   -396.554376
PG08  21773.949673   6798.636188 -13818.204901    -51.977373
PG09  24297.170403  -8154.505804  -7064.473300   -302.180392
PG10 -11527.418376  23710.000175  -1614.316011   -483.444990
PG11  23690.042933  11547.397057    250.878444   -132.751593
PG12 -15007.959266  -2694.009734  21495.223396     52.056394
PG13 -13851.685882 -13102.172222 -18669.240003     56.221574
PG16   4427.209858  18290.216363 -18770.918241   -224.478707
PG17  10183.072052 -14158.844061  20453.698177    341.929223
PG18      0.000000      0.000000      0.000000 999999.999999
PG19   3082.653418 -14531.134849  21724.715691    -89.794266
PG20 -15075.447735  17213.241898 -13343.672154    526.347714
PG21  18136.004022  19652.902435   1560.104276     59.329622
PG22  13956.372329   8145.249317  21288.623402   -741.424097
PG23 -15873.066426  18083.572040 -11251.996964     88.072425
PG24 -20906.161941 -12531.598243  10785.009439    -19.972360
PG25 -17334.550643  10622.504687  16710.255926      7.773079
PG26  -3348.813557  24889.255675  -8294.374724    297.743826
PG27  11370.436742  12709.658359 -20598.769801   -421.859649
PG28  12390.283609 -23590.548646    892.916282    665.939367
PG30   7214.917264 -15573.551647 -20165.348078   -322.660814
PG31   2565.468587  21737.593287  14654.307783    -75.917212
PG32  -9511.286815  15101.810966  19705.663845    359.149021
PJ01 -29578.091064  30089.037638   5941.581657   -339.733672
PJ02 -27219.022033  26376.818623  23250.147310     -5.381166
PJ03 -31129.035377  15929.616389 -18951.937316     -2.127995
PJ07 -25394.142901  33663.273410     30.854819      0.096842
PR01 -14562.668604  17579.550091  11387.463556     69.286670
PR02   4388.637298  10202.526134  22991.867213    450.603689
PR03  18130.625404  -2422.859760  17837.728091     24.047340
PR04  21421.094342 -13594.722078   2701.662219     58.517685
PR05  12825.073554 -17056.103310 -13990.453974     59.544712
PR07 -18391.455334   2850.665180 -17392.281976    -40.876570
PR08 -21400.488426  13608.140489  -2593.373226    -55.246677
PR09  -6924.423166 -22678.374319   9333.146816      3.096386
PR11  -8891.971944  12068.843875  20673.490487    -41.640555
PR12  -1722.100945  23998.656024   8474.998869    173.049805
PR13   6794.957531  22853.873758  -9078.320687    -45.445093
PR14  11153.551788   8062.069525 -21461.912204     56.772680
PR15   9052.159793 -11095.672884 -21083.029705    106.992775
PR16    864.727498 -24385.120453  -7666.795312     -7.399789
PR17  23475.170274   9516.980258   2783.636428    367.287879
PR18  18336.485484   -198.973518  17767.037520     53.246792
PR19   4195.141488  -9484.740670  23305.062071   -116.042142
PR20 -14824.597328 -14705.788839  14635.646453   -424.516625
PR21 -23536.182461  -9109.620695  -3840.635893   -160.079192
PR22 -17430.797863    893.249916 -18578.207477    -78.183765
PR23   3550.660647  12540.853381 -21931.562707    339.335980
PR24  15432.515290  14787.429251 -13886.408641     17.413974
PR26 -10397.109018 -14109.654580  18560.495738   -363.568615
EOF
